ONEWEB-0597             
1 54663U 22166X   25262.52048116  .00000059  00000+0  11159-3 0  9998
2 54663  87.9202 298.0065 0001982  89.9049 270.2312 13.21824144135784
ONEWEB-0600             
1 54664U 22166Y   25262.57882564  .00000076  00000+0  15164-3 0  9996
2 54664  87.9196 297.9876 0001884  90.5443 269.5906 13.21823601135767
ONEWEB-0601             
1 54665U 22166Z   25262.49522099  .00000015  00000+0  47194-5 0  9995
2 54665  87.9198 298.0217 0002128  87.4254 272.7124 13.21822703135948
ONEWEB-0602             
1 54666U 22166AA  25262.61116040  .00000024  00000+0  26591-4 0  9992
2 54666  87.9206 298.0001 0001623  86.3810 273.7510 13.21823589135803
ONEWEB-0603             
1 54667U 22166AB  25262.54099016  .00000008  00000+0 -11741-4 0  9992
2 54667  87.9201 297.9489 0001912  90.8545 269.2809 13.21824914135728
ONEWEB-0604             
1 54668U 22166AC  25262.60405976  .00000079  00000+0  15969-3 0  9998
2 54668  87.9198 297.9615 0001906  88.3469 271.7883 13.21824291135699
ONEWEB-0605             
1 54669U 22166AD  25262.59776723  .00000064  00000+0  12393-3 0  9990
2 54669  87.9197 297.9927 0002538  87.3279 272.8145 13.21828064135768
ONEWEB-0606             
1 54670U 22166AE  25262.54414115 -.00000011  00000+0 -57050-4 0  9995
2 54670  87.9199 298.0136 0001884  99.6748 260.4599 13.21824719135811
